{
  "generated_utc": "2026-07-16T10:00:00Z",
  "generated_local": "2026-07-16 06:00 EDT",
  "window_days": 2,
  "trips": [
    {
      "iata": "ATL",
      "icao": "KATL",
      "date": "2026-07-20",
      "depart_local": "08:15",
      "airline": "DL",
      "flight": "1234",
      "arrival_iata": "LGA",
      "verdict": "MODERATE",
      "reasons": [
        "MVFR (marginal) conditions forecast",
        "FAA departure delay 15-30 min (Steady)"
      ],
      "faa": {
        "ground_stop": false,
        "gdp": false,
        "closure": false,
        "delay": "15-30 min (Steady)",
        "reason": "WEATHER / LOW CEILINGS",
        "events": ["Departure delay 15-30 min (Steady) — WEATHER / LOW CEILINGS"]
      },
      "weather": {
        "flight_category": "MVFR",
        "ceiling_ft": 1200,
        "vis_mi": 4,
        "ts": false,
        "gust_kt": 18,
        "low_ceiling": false,
        "low_vis": false,
        "gusty": false,
        "ifr": false,
        "taf_raw": "KATL 160530Z 1606/1712 18010G18KT 4SM BR BKN012"
      },
      "amadeus": {
        "available": false,
        "probability_bucket": null,
        "note": "no credentials"
      },
      "sources": { "faa": "ok", "weather": "ok", "amadeus": "skipped" }
    }
  ]
}
